[{"OBJECT_NAME":"STARLINK-35017","OBJECT_ID":"2025-184V","EPOCH":"2026-03-09T16:25:05.764800","MEAN_MOTION":15.0564487,"ECCENTRICITY":7.566e-5,"INCLINATION":97.6034,"RA_OF_ASC_NODE":122.71,"ARG_OF_PERICENTER":106.689,"MEAN_ANOMALY":253.4419,"EPHEMERIS_TYPE":0,"CLASSIFICATION_TYPE":"U","NORAD_CAT_ID":65292,"ELEMENT_SET_NO":999,"REV_AT_EPOCH":3125,"BSTAR":0.00022122538,"MEAN_MOTION_DOT":3.132e-5,"MEAN_MOTION_DDOT":0},{"OBJECT_NAME":"PEGASUS DEB","OBJECT_ID":"1994-029AGC","EPOCH":"2026-03-05T08:27:18.984384","MEAN_MOTION":14.52218034,"ECCENTRICITY":0.0236757,"INCLINATION":81.9426,"RA_OF_ASC_NODE":296.4283,"ARG_OF_PERICENTER":114.8689,"MEAN_ANOMALY":247.7324,"EPHEMERIS_TYPE":0,"CLASSIFICATION_TYPE":"U","NORAD_CAT_ID":39929,"ELEMENT_SET_NO":999,"REV_AT_EPOCH":61587,"BSTAR":0.0010545,"MEAN_MOTION_DOT":6.215e-5,"MEAN_MOTION_DDOT":0}]
